[
  {
    "OBJECT_NAME": "STARLINK-33827",
    "OBJECT_ID": "25091Z",
    "EPOCH": "2025-11-11T03:44:51.097344",
    "MEAN_MOTION": 15.27602092,
    "ECCENTRICITY": 2.06e-05,
    "INCLINATION": 42.9964,
    "RA_OF_ASC_NODE": 1.9742,
    "ARG_OF_PERICENTER": 285.5063,
    "MEAN_ANOMALY": 74.5765,
    "EPHEMERIS_TYPE": 0,
    "CLASSIFICATION_TYPE": "U",
    "NORAD_CAT_ID": 63798,
    "ELEMENT_SET_NO": 999,
    "REV_AT_EPOCH": 3077,
    "BSTAR": 0.0012963,
    "MEAN_MOTION_DOT": 0.00035605,
    "MEAN_MOTION_DDOT": 0.0,
    "TLE_LINE1": "1 63798U 25091Z   25315.15614696  .00035605  00000+0  12963-2 0  9995",
    "TLE_LINE2": "2 63798  42.9964   1.9742 0000206 285.5063  74.5765 15.27602092 30774",
    "COMMENT": "Grouped by shell and plane from TLE"
  },
  {
    "OBJECT_NAME": "STARLINK-33899",
    "OBJECT_ID": "25091AA",
    "EPOCH": "2025-11-11T03:33:45.220320",
    "MEAN_MOTION": 15.27608852,
    "ECCENTRICITY": 9.59e-05,
    "INCLINATION": 42.9981,
    "RA_OF_ASC_NODE": 1.9131,
    "ARG_OF_PERICENTER": 233.2576,
    "MEAN_ANOMALY": 126.8187,
    "EPHEMERIS_TYPE": 0,
    "CLASSIFICATION_TYPE": "U",
    "NORAD_CAT_ID": 63799,
    "ELEMENT_SET_NO": 999,
    "REV_AT_EPOCH": 3088,
    "BSTAR": 0.0018507999999999999,
    "MEAN_MOTION_DOT": 0.00051065,
    "MEAN_MOTION_DDOT": 0.0,
    "TLE_LINE1": "1 63799U 25091AA  25315.14844005  .00051065  00000+0  18508-2 0  9993",
    "TLE_LINE2": "2 63799  42.9981   1.9131 0000959 233.2576 126.8187 15.27608852 30881",
    "COMMENT": "Grouped by shell and plane from TLE"
  },
  {
    "OBJECT_NAME": "STARLINK-33900",
    "OBJECT_ID": "25091AB",
    "EPOCH": "2025-11-11T03:28:12.178560",
    "MEAN_MOTION": 15.27603084,
    "ECCENTRICITY": 9.46e-05,
    "INCLINATION": 42.9981,
    "RA_OF_ASC_NODE": 1.8834,
    "ARG_OF_PERICENTER": 237.779,
    "MEAN_ANOMALY": 122.297,
    "EPHEMERIS_TYPE": 0,
    "CLASSIFICATION_TYPE": "U",
    "NORAD_CAT_ID": 63800,
    "ELEMENT_SET_NO": 999,
    "REV_AT_EPOCH": 3088,
    "BSTAR": 0.0018498000000000002,
    "MEAN_MOTION_DOT": 0.00051029,
    "MEAN_MOTION_DDOT": 0.0,
    "TLE_LINE1": "1 63800U 25091AB  25315.14458540  .00051029  00000+0  18498-2 0  9999",
    "TLE_LINE2": "2 63800  42.9981   1.8834 0000946 237.7790 122.2970 15.27603084 30888",
    "COMMENT": "Grouped by shell and plane from TLE"
  },
  {
    "OBJECT_NAME": "STARLINK-33975",
    "OBJECT_ID": "25091AC",
    "EPOCH": "2025-11-11T04:42:00.226944",
    "MEAN_MOTION": 15.27606579,
    "ECCENTRICITY": 0.0001435,
    "INCLINATION": 42.9986,
    "RA_OF_ASC_NODE": 1.402,
    "ARG_OF_PERICENTER": 246.4755,
    "MEAN_ANOMALY": 113.5946,
    "EPHEMERIS_TYPE": 0,
    "CLASSIFICATION_TYPE": "U",
    "NORAD_CAT_ID": 63802,
    "ELEMENT_SET_NO": 999,
    "REV_AT_EPOCH": 3089,
    "BSTAR": 0.0018819,
    "MEAN_MOTION_DOT": 0.00051931,
    "MEAN_MOTION_DDOT": 0.0,
    "TLE_LINE1": "1 63802U 25091AC  25315.19583596  .00051931  00000+0  18819-2 0  9995",
    "TLE_LINE2": "2 63802  42.9986   1.4020 0001435 246.4755 113.5946 15.27606579 30899",
    "COMMENT": "Grouped by shell and plane from TLE"
  },
  {
    "OBJECT_NAME": "STARLINK-33951",
    "OBJECT_ID": "25091AD",
    "EPOCH": "2025-11-11T03:15:14.743584",
    "MEAN_MOTION": 15.27606274,
    "ECCENTRICITY": 2.73e-05,
    "INCLINATION": 42.9993,
    "RA_OF_ASC_NODE": 1.8196,
    "ARG_OF_PERICENTER": 235.4817,
    "MEAN_ANOMALY": 124.6009,
    "EPHEMERIS_TYPE": 0,
    "CLASSIFICATION_TYPE": "U",
    "NORAD_CAT_ID": 63803,
    "ELEMENT_SET_NO": 999,
    "REV_AT_EPOCH": 3082,
    "BSTAR": 0.0012698000000000002,
    "MEAN_MOTION_DOT": 0.00034874,
    "MEAN_MOTION_DDOT": 0.0,
    "TLE_LINE1": "1 63803U 25091AD  25315.13558731  .00034874  00000+0  12698-2 0  9999",
    "TLE_LINE2": "2 63803  42.9993   1.8196 0000273 235.4817 124.6009 15.27606274 30820",
    "COMMENT": "Grouped by shell and plane from TLE"
  },
  {
    "OBJECT_NAME": "STARLINK-34556",
    "OBJECT_ID": "25144K",
    "EPOCH": "2025-11-11T04:33:36.624672",
    "MEAN_MOTION": 15.30237188,
    "ECCENTRICITY": 0.0001483,
    "INCLINATION": 53.1579,
    "RA_OF_ASC_NODE": 9.0067,
    "ARG_OF_PERICENTER": 93.6928,
    "MEAN_ANOMALY": 266.4243,
    "EPHEMERIS_TYPE": 0,
    "CLASSIFICATION_TYPE": "U",
    "NORAD_CAT_ID": 64733,
    "ELEMENT_SET_NO": 999,
    "REV_AT_EPOCH": 2160,
    "BSTAR": 0.0014481,
    "MEAN_MOTION_DOT": 0.00042828,
    "MEAN_MOTION_DDOT": 0.0,
    "TLE_LINE1": "1 64733U 25144K   25315.19000723  .00042828  00000+0  14481-2 0  9990",
    "TLE_LINE2": "2 64733  53.1579   9.0067 0001483  93.6928 266.4243 15.30237188 21604",
    "COMMENT": "Grouped by shell and plane from TLE"
  },
  {
    "OBJECT_NAME": "STARLINK-34208",
    "OBJECT_ID": "25144S",
    "EPOCH": "2025-11-11T04:30:34.469280",
    "MEAN_MOTION": 15.30208645,
    "ECCENTRICITY": 7.54e-05,
    "INCLINATION": 53.1582,
    "RA_OF_ASC_NODE": 8.9921,
    "ARG_OF_PERICENTER": 80.0312,
    "MEAN_ANOMALY": 280.0773,
    "EPHEMERIS_TYPE": 0,
    "CLASSIFICATION_TYPE": "U",
    "NORAD_CAT_ID": 64740,
    "ELEMENT_SET_NO": 999,
    "REV_AT_EPOCH": 2160,
    "BSTAR": 0.0017782000000000002,
    "MEAN_MOTION_DOT": 0.00052695,
    "MEAN_MOTION_DDOT": 0.0,
    "TLE_LINE1": "1 64740U 25144S   25315.18789895  .00052695  00000+0  17782-2 0  9991",
    "TLE_LINE2": "2 64740  53.1582   8.9921 0000754  80.0312 280.0773 15.30208645 21606",
    "COMMENT": "Grouped by shell and plane from TLE"
  },
  {
    "OBJECT_NAME": "STARLINK-34592",
    "OBJECT_ID": "25144Y",
    "EPOCH": "2025-11-11T07:23:23.411040",
    "MEAN_MOTION": 15.39603464,
    "ECCENTRICITY": 0.0001613,
    "INCLINATION": 53.1591,
    "RA_OF_ASC_NODE": 4.0654,
    "ARG_OF_PERICENTER": 48.9586,
    "MEAN_ANOMALY": 311.1558,
    "EPHEMERIS_TYPE": 0,
    "CLASSIFICATION_TYPE": "U",
    "NORAD_CAT_ID": 64746,
    "ELEMENT_SET_NO": 999,
    "REV_AT_EPOCH": 2168,
    "BSTAR": 0.0021181,
    "MEAN_MOTION_DOT": 0.0008523,
    "MEAN_MOTION_DDOT": 0.0,
    "TLE_LINE1": "1 64746U 25144Y   25315.30790985  .00085230  00000+0  21181-2 0  9992",
    "TLE_LINE2": "2 64746  53.1591   4.0654 0001613  48.9586 311.1558 15.39603464 21685",
    "COMMENT": "Grouped by shell and plane from TLE"
  },
  {
    "OBJECT_NAME": "STARLINK-34589",
    "OBJECT_ID": "25144Z",
    "EPOCH": "2025-11-11T02:54:32.110272",
    "MEAN_MOTION": 15.39695952,
    "ECCENTRICITY": 0.0001973,
    "INCLINATION": 53.1592,
    "RA_OF_ASC_NODE": 0.7032,
    "ARG_OF_PERICENTER": 58.7467,
    "MEAN_ANOMALY": 301.3731,
    "EPHEMERIS_TYPE": 0,
    "CLASSIFICATION_TYPE": "U",
    "NORAD_CAT_ID": 64747,
    "ELEMENT_SET_NO": 999,
    "REV_AT_EPOCH": 2171,
    "BSTAR": 0.0017388999999999998,
    "MEAN_MOTION_DOT": 0.00069974,
    "MEAN_MOTION_DDOT": 0.0,
    "TLE_LINE1": "1 64747U 25144Z   25315.12120498  .00069974  00000+0  17389-2 0  9991",
    "TLE_LINE2": "2 64747  53.1592   0.7032 0001973  58.7467 301.3731 15.39695952 21717",
    "COMMENT": "Grouped by shell and plane from TLE"
  },
  {
    "OBJECT_NAME": "STARLINK-34900",
    "OBJECT_ID": "25190Z",
    "EPOCH": "2025-11-10T11:14:28.734432",
    "MEAN_MOTION": 15.30206392,
    "ECCENTRICITY": 0.0001502,
    "INCLINATION": 53.1624,
    "RA_OF_ASC_NODE": 1.8183,
    "ARG_OF_PERICENTER": 99.0653,
    "MEAN_ANOMALY": 261.0518,
    "EPHEMERIS_TYPE": 0,
    "CLASSIFICATION_TYPE": "U",
    "NORAD_CAT_ID": 65374,
    "ELEMENT_SET_NO": 999,
    "REV_AT_EPOCH": 1098,
    "BSTAR": 0.0014676000000000001,
    "MEAN_MOTION_DOT": 0.00043369,
    "MEAN_MOTION_DDOT": 0.0,
    "TLE_LINE1": "1 65374U 25190Z   25314.46838813  .00043369  00000+0  14676-2 0  9998",
    "TLE_LINE2": "2 65374  53.1624   1.8183 0001502  99.0653 261.0518 15.30206392 10981",
    "COMMENT": "Grouped by shell and plane from TLE"
  },
  {
    "OBJECT_NAME": "STARLINK-33921",
    "OBJECT_ID": "25225AA",
    "EPOCH": "2025-11-10T11:57:30.803616",
    "MEAN_MOTION": 15.49328345,
    "ECCENTRICITY": 0.0002302,
    "INCLINATION": 53.1606,
    "RA_OF_ASC_NODE": 0.4253,
    "ARG_OF_PERICENTER": 41.9744,
    "MEAN_ANOMALY": 318.1442,
    "EPHEMERIS_TYPE": 0,
    "CLASSIFICATION_TYPE": "U",
    "NORAD_CAT_ID": 65934,
    "ELEMENT_SET_NO": 999,
    "REV_AT_EPOCH": 525,
    "BSTAR": 0.0018315999999999999,
    "MEAN_MOTION_DOT": 0.00102844,
    "MEAN_MOTION_DDOT": 0.0,
    "TLE_LINE1": "1 65934U 25225AA  25314.49827319  .00102844  00000+0  18316-2 0  9990",
    "TLE_LINE2": "2 65934  53.1606   0.4253 0002302  41.9744 318.1442 15.49328345  5259",
    "COMMENT": "Grouped by shell and plane from TLE"
  }
]